[{"OBJECT_NAME":"STARLINK-5087","OBJECT_ID":"2022-177AG","EPOCH":"2026-03-09T22:00:01.999584","MEAN_MOTION":15.1141604,"ECCENTRICITY":0.00013703,"INCLINATION":43.0008,"RA_OF_ASC_NODE":119.1582,"ARG_OF_PERICENTER":266.6734,"MEAN_ANOMALY":273.7551,"EPHEMERIS_TYPE":0,"CLASSIFICATION_TYPE":"U","NORAD_CAT_ID":54850,"ELEMENT_SET_NO":999,"REV_AT_EPOCH":573,"BSTAR":0.046432606,"MEAN_MOTION_DOT":0.00859826,"MEAN_MOTION_DDOT":0},{"OBJECT_NAME":"TRANSPORTER-15 OBJECT CX","OBJECT_ID":"2025-276CX","EPOCH":"2026-03-09T18:16:24.883104","MEAN_MOTION":15.19627935,"ECCENTRICITY":1.891e-5,"INCLINATION":97.4237,"RA_OF_ASC_NODE":144.0993,"ARG_OF_PERICENTER":69.686,"MEAN_ANOMALY":290.4395,"EPHEMERIS_TYPE":0,"CLASSIFICATION_TYPE":"U","NORAD_CAT_ID":66759,"ELEMENT_SET_NO":999,"REV_AT_EPOCH":1533,"BSTAR":0.00041936127,"MEAN_MOTION_DOT":8.872e-5,"MEAN_MOTION_DDOT":0}]
